start=new Date('2022-01-02T00:00:00.000Z').valueOf();
sats=[{"LAUNCH_DATE":"2020-11-25","ECCENTRICITY":"0.00017830","OBJECT_NAME":"STARLINK-1785","SITE":"AFETR","MEAN_ELEMENT_THEORY":"SGP4","TLE_LINE1":"1 47124U 20088C   22001.29979035  .00001059  00000-0  89980-4 0  9998","EPHEMERIS_TYPE":"0","RA_OF_ASC_NODE":"327.8360","PERIAPSIS":"545.992","REV_AT_EPOCH":"6140","MEAN_MOTION_DOT":"0.00001059","OBJECT_TYPE":"PAYLOAD","APOAPSIS":"548.462","COUNTRY_CODE":"US","DECAY_DATE":null,"SEMIMAJOR_AXIS":"6925.362","FILE":"3255244","ELEMENT_SET_NO":"999","RCS_SIZE":"LARGE","REF_FRAME":"TEME","INCLINATION":"53.0553","MEAN_MOTION":"15.06395661","TIME_SYSTEM":"UTC","BSTAR":"0.00008998000000","PERIOD":"95.592","CLASSIFICATION_TYPE":"U","MEAN_MOTION_DDOT":"0.0000000000000","EPOCH":"2022-01-01T07:11:41.886240","OBJECT_ID":"2020-088C","NORAD_CAT_ID":"47124","TLE_LINE2":"2 47124  53.0553 327.8360 0001783  57.3959 302.7202 15.06395661 61406","MEAN_ANOMALY":"302.7202","GP_ID":"192869495","CENTER_NAME":"EARTH","ARG_OF_PERICENTER":"57.3959"},{"SITE":"AFETR","MEAN_ELEMENT_THEORY":"SGP4","OBJECT_NAME":"STARLINK-1812","ECCENTRICITY":"0.00019910","LAUNCH_DATE":"2020-11-25","SEMIMAJOR_AXIS":"6925.358","FILE":"3255244","OBJECT_TYPE":"PAYLOAD","APOAPSIS":"548.602","COUNTRY_CODE":"US","DECAY_DATE":null,"RA_OF_ASC_NODE":"322.6481","PERIAPSIS":"545.844","REV_AT_EPOCH":"6148","MEAN_MOTION_DOT":"-0.00000461","TLE_LINE1":"1 47126U 20088E   22001.33990273 -.00000461  00000-0 -12024-4 0  9995","EPHEMERIS_TYPE":"0","TIME_SYSTEM":"UTC","BSTAR":"-0.00001202400000","PERIOD":"95.592","MEAN_MOTION":"15.06396939","REF_FRAME":"TEME","INCLINATION":"53.0549","ELEMENT_SET_NO":"999","RCS_SIZE":"LARGE","GP_ID":"192869236","CENTER_NAME":"EARTH","ARG_OF_PERICENTER":"48.7293","NORAD_CAT_ID":"47126","TLE_LINE2":"2 47126  53.0549 322.6481 0001991  48.7293 311.3867 15.06396939 61486","MEAN_ANOMALY":"311.3867","MEAN_MOTION_DDOT":"0.0000000000000","EPOCH":"2022-01-01T08:09:27.595872","OBJECT_ID":"2020-088E","CLASSIFICATION_TYPE":"U"},{"CENTER_NAME":"EARTH","GP_ID":"192894914","ARG_OF_PERICENTER":"27.1870","NORAD_CAT_ID":"47128","MEAN_ANOMALY":"332.9281","TLE_LINE2":"2 47128  53.0567 299.8558 0003121  27.1870 332.9281 15.06396386 61853","EPOCH":"2022-01-01T23:03:48.349728","MEAN_MOTION_DDOT":"0.0000000000000","OBJECT_ID":"2020-088G","CLASSIFICATION_TYPE":"U","PERIOD":"95.592","BSTAR":"0.00015631000000","TIME_SYSTEM":"UTC","MEAN_MOTION":"15.06396386","REF_FRAME":"TEME","INCLINATION":"53.0567","ELEMENT_SET_NO":"999","RCS_SIZE":"LARGE","SEMIMAJOR_AXIS":"6925.360","FILE":"3255246","APOAPSIS":"549.386","COUNTRY_CODE":"US","OBJECT_TYPE":"PAYLOAD","DECAY_DATE":null,"RA_OF_ASC_NODE":"299.8558","MEAN_MOTION_DOT":"0.00002047","REV_AT_EPOCH":"6185","PERIAPSIS":"545.063","TLE_LINE1":"1 47128U 20088G   22001.96097627  .00002047  00000-0  15631-3 0  9993","EPHEMERIS_TYPE":"0","SITE":"AFETR","MEAN_ELEMENT_THEORY":"SGP4","OBJECT_NAME":"STARLINK-1837","ECCENTRICITY":"0.00031210","LAUNCH_DATE":"2020-11-25"},{"CLASSIFICATION_TYPE":"U","OBJECT_ID":"2020-088H","EPOCH":"2022-01-01T03:02:55.920768","MEAN_MOTION_DDOT":"0.0000000000000","MEAN_ANOMALY":"309.4736","TLE_LINE2":"2 47129  53.0555 313.6023 0001743  50.6407 309.4736 15.06391328 61594","NORAD_CAT_ID":"47129","ARG_OF_PERICENTER":"50.6407","CENTER_NAME":"EARTH","GP_ID":"192868744","RCS_SIZE":"LARGE","ELEMENT_SET_NO":"999","INCLINATION":"53.0555","REF_FRAME":"TEME","MEAN_MOTION":"15.06391328","PERIOD":"95.593","BSTAR":"0.00007635800000","TIME_SYSTEM":"UTC","EPHEMERIS_TYPE":"0","TLE_LINE1":"1 47129U 20088H   22001.12703612  .00000856  00000-0  76358-4 0  9990","MEAN_MOTION_DOT":"0.00000856","REV_AT_EPOCH":"6159","PERIAPSIS":"546.033","RA_OF_ASC_NODE":"313.6023","DECAY_DATE":null,"APOAPSIS":"548.447","COUNTRY_CODE":"US","OBJECT_TYPE":"PAYLOAD","FILE":"3255244","SEMIMAJOR_AXIS":"6925.375","LAUNCH_DATE":"2020-11-25","ECCENTRICITY":"0.00017430","OBJECT_NAME":"STARLINK-1838","MEAN_ELEMENT_THEORY":"SGP4","SITE":"AFETR"},{"OBJECT_NAME":"STARLINK-1839","SITE":"AFETR","MEAN_ELEMENT_THEORY":"SGP4","LAUNCH_DATE":"2020-11-25","ECCENTRICITY":"0.00016770","COUNTRY_CODE":"US","APOAPSIS":"548.381","OBJECT_TYPE":"PAYLOAD","DECAY_DATE":null,"SEMIMAJOR_AXIS":"6925.355","FILE":"3255244","TLE_LINE1":"1 47130U 20088J   22001.17678917  .00001506  00000-0  11998-3 0  9997","EPHEMERIS_TYPE":"0","RA_OF_ASC_NODE":"333.3709","MEAN_MOTION_DOT":"0.00001506","REV_AT_EPOCH":"6131","PERIAPSIS":"546.058","MEAN_MOTION":"15.06397985","PERIOD":"95.592","BSTAR":"0.00011998000000","TIME_SYSTEM":"UTC","ELEMENT_SET_NO":"999","RCS_SIZE":"LARGE","REF_FRAME":"TEME","INCLINATION":"53.0554","NORAD_CAT_ID":"47130","MEAN_ANOMALY":"303.3196","TLE_LINE2":"2 47130  53.0554 333.3709 0001677  56.7953 303.3196 15.06397985 61312","CENTER_NAME":"EARTH","GP_ID":"192868995","ARG_OF_PERICENTER":"56.7953","CLASSIFICATION_TYPE":"U","EPOCH":"2022-01-01T04:14:34.584288","MEAN_MOTION_DDOT":"0.0000000000000","OBJECT_ID":"2020-088J"},{"OBJECT_TYPE":"PAYLOAD","APOAPSIS":"352.915","COUNTRY_CODE":"US","DECAY_DATE":null,"SEMIMAJOR_AXIS":"6730.388","FILE":"3255246","TLE_LINE1":"1 47131U 20088K   22001.91475188  .00748967  00000-0  50625-2 0  9993","EPHEMERIS_TYPE":"0","RA_OF_ASC_NODE":"253.1579","REV_AT_EPOCH":"6251","PERIAPSIS":"351.590","MEAN_MOTION_DOT":"0.00748967","OBJECT_NAME":"STARLINK-1840","SITE":"AFETR","MEAN_ELEMENT_THEORY":"SGP4","LAUNCH_DATE":"2020-11-25","ECCENTRICITY":"0.00009840","NORAD_CAT_ID":"47131","TLE_LINE2":"2 47131  53.0511 253.1579 0000984  60.0708 300.0407 15.72326136 62511","MEAN_ANOMALY":"300.0407","GP_ID":"192894664","CENTER_NAME":"EARTH","ARG_OF_PERICENTER":"60.0708","CLASSIFICATION_TYPE":"U","MEAN_MOTION_DDOT":"0.0000000000000","EPOCH":"2022-01-01T21:57:14.562432","OBJECT_ID":"2020-088K","MEAN_MOTION":"15.72326136","TIME_SYSTEM":"UTC","BSTAR":"0.00506250000000","PERIOD":"91.584","ELEMENT_SET_NO":"999","RCS_SIZE":"LARGE","REF_FRAME":"TEME","INCLINATION":"53.0511"},{"SITE":"AFETR","MEAN_ELEMENT_THEORY":"SGP4","OBJECT_NAME":"STARLINK-1843","ECCENTRICITY":"0.00016180","LAUNCH_DATE":"2020-11-25","SEMIMAJOR_AXIS":"6925.363","FILE":"3255244","COUNTRY_CODE":"US","APOAPSIS":"548.348","OBJECT_TYPE":"PAYLOAD","DECAY_DATE":null,"RA_OF_ASC_NODE":"313.3762","MEAN_MOTION_DOT":"0.00001066","REV_AT_EPOCH":"6159","PERIAPSIS":"546.107","TLE_LINE1":"1 47133U 20088M   22001.18601078  .00001066  00000-0  90433-4 0  9998","EPHEMERIS_TYPE":"0","PERIOD":"95.592","BSTAR":"0.00009043300000","TIME_SYSTEM":"UTC","MEAN_MOTION":"15.06395445","REF_FRAME":"TEME","INCLINATION":"53.0453","ELEMENT_SET_NO":"999","RCS_SIZE":"LARGE","CENTER_NAME":"EARTH","GP_ID":"192867994","ARG_OF_PERICENTER":"54.9549","NORAD_CAT_ID":"47133","MEAN_ANOMALY":"305.1592","TLE_LINE2":"2 47133  53.0453 313.3762 0001618  54.9549 305.1592 15.06395445 61595","EPOCH":"2022-01-01T04:27:51.331392","MEAN_MOTION_DDOT":"0.0000000000000","OBJECT_ID":"2020-088M","CLASSIFICATION_TYPE":"U"},{"NORAD_CAT_ID":"47134","MEAN_ANOMALY":"289.5758","TLE_LINE2":"2 47134  53.0544 322.5684 0000705  70.5307 289.5758 15.06393683 61483","CENTER_NAME":"EARTH","GP_ID":"192868244","ARG_OF_PERICENTER":"70.5307","CLASSIFICATION_TYPE":"U","EPOCH":"2022-01-01T08:35:59.594496","MEAN_MOTION_DDOT":"0.0000000000000","OBJECT_ID":"2020-088N","MEAN_MOTION":"15.06393683","BSTAR":"0.00011149000000","PERIOD":"95.593","TIME_SYSTEM":"UTC","ELEMENT_SET_NO":"999","RCS_SIZE":"LARGE","REF_FRAME":"TEME","INCLINATION":"53.0544","APOAPSIS":"547.721","COUNTRY_CODE":"US","OBJECT_TYPE":"PAYLOAD","DECAY_DATE":null,"SEMIMAJOR_AXIS":"6925.368","FILE":"3255244","TLE_LINE1":"1 47134U 20088N   22001.35832864  .00001380  00000-0  11149-3 0  9992","EPHEMERIS_TYPE":"0","RA_OF_ASC_NODE":"322.5684","MEAN_MOTION_DOT":"0.00001380","PERIAPSIS":"546.745","REV_AT_EPOCH":"6148","OBJECT_NAME":"STARLINK-1844","SITE":"AFETR","MEAN_ELEMENT_THEORY":"SGP4","LAUNCH_DATE":"2020-11-25","ECCENTRICITY":"0.00007050"},{"SITE":"AFETR","MEAN_ELEMENT_THEORY":"SGP4","OBJECT_NAME":"STARLINK-1845","ECCENTRICITY":"0.00018660","LAUNCH_DATE":"2020-11-25","SEMIMAJOR_AXIS":"6925.356","FILE":"3255246","COUNTRY_CODE":"US","APOAPSIS":"548.513","OBJECT_TYPE":"PAYLOAD","DECAY_DATE":null,"RA_OF_ASC_NODE":"310.1032","MEAN_MOTION_DOT":"0.00001705","PERIAPSIS":"545.929","REV_AT_EPOCH":"6170","TLE_LINE1":"1 47135U 20088P   22001.90845418  .00001705  00000-0  13334-3 0  9992","EPHEMERIS_TYPE":"0","BSTAR":"0.00013334000000","PERIOD":"95.592","TIME_SYSTEM":"UTC","MEAN_MOTION":"15.06397595","REF_FRAME":"TEME","INCLINATION":"53.0566","ELEMENT_SET_NO":"999","RCS_SIZE":"LARGE","CENTER_NAME":"EARTH","GP_ID":"192893413","ARG_OF_PERICENTER":"52.8853","NORAD_CAT_ID":"47135","MEAN_ANOMALY":"307.2306","TLE_LINE2":"2 47135  53.0566 310.1032 0001866  52.8853 307.2306 15.06397595 61704","EPOCH":"2022-01-01T21:48:10.441152","MEAN_MOTION_DDOT":"0.0000000000000","OBJECT_ID":"2020-088P","CLASSIFICATION_TYPE":"U"},{"ECCENTRICITY":"0.00020040","LAUNCH_DATE":"2020-11-25","SITE":"AFETR","MEAN_ELEMENT_THEORY":"SGP4","OBJECT_NAME":"STARLINK-1846","RA_OF_ASC_NODE":"322.4806","MEAN_MOTION_DOT":"0.00001336","PERIAPSIS":"545.844","REV_AT_EPOCH":"6148","TLE_LINE1":"1 47136U 20088Q   22001.37675869  .00001336  00000-0  10863-3 0  9999","EPHEMERIS_TYPE":"0","SEMIMAJOR_AXIS":"6925.367","FILE":"3255244","APOAPSIS":"548.620","COUNTRY_CODE":"US","OBJECT_TYPE":"PAYLOAD","DECAY_DATE":null,"REF_FRAME":"TEME","INCLINATION":"53.0560","ELEMENT_SET_NO":"999","RCS_SIZE":"LARGE","BSTAR":"0.00010863000000","PERIOD":"95.593","TIME_SYSTEM":"UTC","MEAN_MOTION":"15.06393954","EPOCH":"2022-01-01T09:02:31.950816","MEAN_MOTION_DDOT":"0.0000000000000","OBJECT_ID":"2020-088Q","CLASSIFICATION_TYPE":"U","CENTER_NAME":"EARTH","GP_ID":"192869237","ARG_OF_PERICENTER":"49.8308","NORAD_CAT_ID":"47136","MEAN_ANOMALY":"310.2856","TLE_LINE2":"2 47136  53.0560 322.4806 0002004  49.8308 310.2856 15.06393954 61484"}];
